CCSDS_OMM_VERS = 2.0
CREATION_DATE  = 
ORIGINATOR     = 

OBJECT_NAME    = COSMOS 1743
OBJECT_ID      = 1986-034A
CENTER_NAME    = EARTH
REF_FRAME      = TEME
TIME_SYSTEM    = UTC
MEAN_ELEMENT_THEORY = SGP/SGP4

EPOCH          = 2025-10-30T17:48:03.686976
MEAN_MOTION    = 15.49194709
ECCENTRICITY   = .00090571
INCLINATION    = 82.5381
RA_OF_ASC_NODE = 209.1435
ARG_OF_PERICENTER = 56.0867
MEAN_ANOMALY   = 304.1243

EPHEMERIS_TYPE = 0
CLASSIFICATION_TYPE = U
NORAD_CAT_ID   = 16719
ELEMENT_SET_NO = 999
REV_AT_EPOCH   = 16007
BSTAR          = .64848499E-3
MEAN_MOTION_DOT = .3551E-3
MEAN_MOTION_DDOT = 0

CCSDS_OMM_VERS = 2.0
CREATION_DATE  = 
ORIGINATOR     = 

OBJECT_NAME    = SL-14 R/B
OBJECT_ID      = 1986-046B
CENTER_NAME    = EARTH
REF_FRAME      = TEME
TIME_SYSTEM    = UTC
MEAN_ELEMENT_THEORY = SGP/SGP4

EPOCH          = 2025-10-30T16:05:47.878656
MEAN_MOTION    = 14.85420186
ECCENTRICITY   = .00218552
INCLINATION    = 82.4844
RA_OF_ASC_NODE = 202.9811
ARG_OF_PERICENTER = 300.0752
MEAN_ANOMALY   = 59.8297

EPHEMERIS_TYPE = 0
CLASSIFICATION_TYPE = U
NORAD_CAT_ID   = 16792
ELEMENT_SET_NO = 999
REV_AT_EPOCH   = 10710
BSTAR          = .81127899E-4
MEAN_MOTION_DOT = .725E-5
MEAN_MOTION_DDOT = 0

CCSDS_OMM_VERS = 2.0
CREATION_DATE  = 
ORIGINATOR     = 

OBJECT_NAME    = SL-14 R/B
OBJECT_ID      = 1986-055B
CENTER_NAME    = EARTH
REF_FRAME      = TEME
TIME_SYSTEM    = UTC
MEAN_ELEMENT_THEORY = SGP/SGP4

EPOCH          = 2025-10-30T20:46:01.120800
MEAN_MOTION    = 14.85457691
ECCENTRICITY   = .00202131
INCLINATION    = 82.5200
RA_OF_ASC_NODE = 248.6541
ARG_OF_PERICENTER = 45.1719
MEAN_ANOMALY   = 338.5388

EPHEMERIS_TYPE = 0
CLASSIFICATION_TYPE = U
NORAD_CAT_ID   = 16882
ELEMENT_SET_NO = 999
REV_AT_EPOCH   = 10009
BSTAR          = .10045609E-3
MEAN_MOTION_DOT = .893E-5
MEAN_MOTION_DDOT = 0

CCSDS_OMM_VERS = 2.0
CREATION_DATE  = 
ORIGINATOR     = 

OBJECT_NAME    = AJISAI (EGS)
OBJECT_ID      = 1986-061A
CENTER_NAME    = EARTH
REF_FRAME      = TEME
TIME_SYSTEM    = UTC
MEAN_ELEMENT_THEORY = SGP/SGP4

EPOCH          = 2025-10-30T23:02:26.490048
MEAN_MOTION    = 12.44514108
ECCENTRICITY   = .00111385
INCLINATION    = 50.0063
RA_OF_ASC_NODE = 132.2627
ARG_OF_PERICENTER = 317.8207
MEAN_ANOMALY   = 204.0245

EPHEMERIS_TYPE = 0
CLASSIFICATION_TYPE = U
NORAD_CAT_ID   = 16908
ELEMENT_SET_NO = 999
REV_AT_EPOCH   = 45184
BSTAR          = .14460283E-3
MEAN_MOTION_DOT = -.77E-6
MEAN_MOTION_DDOT = 0

CCSDS_OMM_VERS = 2.0
CREATION_DATE  = 
ORIGINATOR     = 

OBJECT_NAME    = COSMOS 1812
OBJECT_ID      = 1987-003A
CENTER_NAME    = EARTH
REF_FRAME      = TEME
TIME_SYSTEM    = UTC
MEAN_ELEMENT_THEORY = SGP/SGP4

EPOCH          = 2025-10-30T13:04:36.588288
MEAN_MOTION    = 15.67229722
ECCENTRICITY   = .00033547
INCLINATION    = 82.4913
RA_OF_ASC_NODE = 338.4661
ARG_OF_PERICENTER = 179.7505
MEAN_ANOMALY   = 180.3758

EPHEMERIS_TYPE = 0
CLASSIFICATION_TYPE = U
NORAD_CAT_ID   = 17295
ELEMENT_SET_NO = 999
REV_AT_EPOCH   = 12387
BSTAR          = .6761744E-3
MEAN_MOTION_DOT = .7299E-3
MEAN_MOTION_DDOT = 0

CCSDS_OMM_VERS = 2.0
CREATION_DATE  = 
ORIGINATOR     = 

OBJECT_NAME    = SL-14 R/B
OBJECT_ID      = 1987-024B
CENTER_NAME    = EARTH
REF_FRAME      = TEME
TIME_SYSTEM    = UTC
MEAN_ELEMENT_THEORY = SGP/SGP4

EPOCH          = 2025-10-30T18:01:50.294784
MEAN_MOTION    = 14.85958455
ECCENTRICITY   = .00177096
INCLINATION    = 82.5304
RA_OF_ASC_NODE = 214.8289
ARG_OF_PERICENTER = 336.0021
MEAN_ANOMALY   = 24.0368

EPHEMERIS_TYPE = 0
CLASSIFICATION_TYPE = U
NORAD_CAT_ID   = 17567
ELEMENT_SET_NO = 999
REV_AT_EPOCH   = 6883
BSTAR          = .87663437E-4
MEAN_MOTION_DOT = .791E-5
MEAN_MOTION_DDOT = 0

CCSDS_OMM_VERS = 2.0
CREATION_DATE  = 
ORIGINATOR     = 

OBJECT_NAME    = COSMOS 1833
OBJECT_ID      = 1987-027A
CENTER_NAME    = EARTH
REF_FRAME      = TEME
TIME_SYSTEM    = UTC
MEAN_ELEMENT_THEORY = SGP/SGP4

EPOCH          = 2025-10-30T17:56:25.875744
MEAN_MOTION    = 14.13025518
ECCENTRICITY   = .00205382
INCLINATION    = 70.9165
RA_OF_ASC_NODE = 239.1505
ARG_OF_PERICENTER = 32.8536
MEAN_ANOMALY   = 327.3857

EPHEMERIS_TYPE = 0
CLASSIFICATION_TYPE = U
NORAD_CAT_ID   = 17589
ELEMENT_SET_NO = 999
REV_AT_EPOCH   = 99195
BSTAR          = -.13854525E-3
MEAN_MOTION_DOT = -.307E-5
MEAN_MOTION_DDOT = 0

CCSDS_OMM_VERS = 2.0
CREATION_DATE  = 
ORIGINATOR     = 

OBJECT_NAME    = SL-16 R/B
OBJECT_ID      = 1987-027B
CENTER_NAME    = EARTH
REF_FRAME      = TEME
TIME_SYSTEM    = UTC
MEAN_ELEMENT_THEORY = SGP/SGP4

EPOCH          = 2025-10-30T16:11:43.649664
MEAN_MOTION    = 14.17142045
ECCENTRICITY   = .00067995
INCLINATION    = 71.0024
RA_OF_ASC_NODE = 190.4621
ARG_OF_PERICENTER = 304.9587
MEAN_ANOMALY   = 55.0898

EPHEMERIS_TYPE = 0
CLASSIFICATION_TYPE = U
NORAD_CAT_ID   = 17590
ELEMENT_SET_NO = 999
REV_AT_EPOCH   = 99696
BSTAR          = .648623E-5
MEAN_MOTION_DOT = -.35E-6
MEAN_MOTION_DDOT = 0

CCSDS_OMM_VERS = 2.0
CREATION_DATE  = 
ORIGINATOR     = 

OBJECT_NAME    = SL-14 R/B
OBJECT_ID      = 1987-038B
CENTER_NAME    = EARTH
REF_FRAME      = TEME
TIME_SYSTEM    = UTC
MEAN_ELEMENT_THEORY = SGP/SGP4

EPOCH          = 2025-10-30T17:55:26.240736
MEAN_MOTION    = 14.85193020
ECCENTRICITY   = .00181767
INCLINATION    = 82.5023
RA_OF_ASC_NODE = 59.1842
ARG_OF_PERICENTER = 231.4326
MEAN_ANOMALY   = 128.5263

EPHEMERIS_TYPE = 0
CLASSIFICATION_TYPE = U
NORAD_CAT_ID   = 17912
ELEMENT_SET_NO = 999
REV_AT_EPOCH   = 5994
BSTAR          = .98463014E-4
MEAN_MOTION_DOT = .869E-5
MEAN_MOTION_DDOT = 0

CCSDS_OMM_VERS = 2.0
CREATION_DATE  = 
ORIGINATOR     = 

OBJECT_NAME    = COSMOS 1844
OBJECT_ID      = 1987-041A
CENTER_NAME    = EARTH
REF_FRAME      = TEME
TIME_SYSTEM    = UTC
MEAN_ELEMENT_THEORY = SGP/SGP4

EPOCH          = 2025-10-30T10:12:10.747296
MEAN_MOTION    = 14.14508317
ECCENTRICITY   = .00324758
INCLINATION    = 70.8975
RA_OF_ASC_NODE = 308.9301
ARG_OF_PERICENTER = 221.1152
MEAN_ANOMALY   = 138.7522

EPHEMERIS_TYPE = 0
CLASSIFICATION_TYPE = U
NORAD_CAT_ID   = 17973
ELEMENT_SET_NO = 999
REV_AT_EPOCH   = 98516
BSTAR          = .17920968E-3
MEAN_MOTION_DOT = .297E-5
MEAN_MOTION_DDOT = 0

CCSDS_OMM_VERS = 2.0
CREATION_DATE  = 
ORIGINATOR     = 

OBJECT_NAME    = SL-14 R/B
OBJECT_ID      = 1987-055B
CENTER_NAME    = EARTH
REF_FRAME      = TEME
TIME_SYSTEM    = UTC
MEAN_ELEMENT_THEORY = SGP/SGP4

EPOCH          = 2025-10-30T11:26:39.776064
MEAN_MOTION    = 14.85450408
ECCENTRICITY   = .00222214
INCLINATION    = 82.4962
RA_OF_ASC_NODE = 111.7604
ARG_OF_PERICENTER = 84.5225
MEAN_ANOMALY   = 275.8525

EPHEMERIS_TYPE = 0
CLASSIFICATION_TYPE = U
NORAD_CAT_ID   = 18153
ELEMENT_SET_NO = 999
REV_AT_EPOCH   = 5060
BSTAR          = .88131244E-4
MEAN_MOTION_DOT = .787E-5
MEAN_MOTION_DDOT = 0

CCSDS_OMM_VERS = 2.0
CREATION_DATE  = 
ORIGINATOR     = 

OBJECT_NAME    = COSMOS 1867
OBJECT_ID      = 1987-060A
CENTER_NAME    = EARTH
REF_FRAME      = TEME
TIME_SYSTEM    = UTC
MEAN_ELEMENT_THEORY = SGP/SGP4

EPOCH          = 2025-10-30T08:35:22.089120
MEAN_MOTION    = 14.31475100
ECCENTRICITY   = .0013772
INCLINATION    = 65.0104
RA_OF_ASC_NODE = 311.6892
ARG_OF_PERICENTER = 266.8256
MEAN_ANOMALY   = 93.1253

EPHEMERIS_TYPE = 0
CLASSIFICATION_TYPE = U
NORAD_CAT_ID   = 18187
ELEMENT_SET_NO = 999
REV_AT_EPOCH   = 128
BSTAR          = .43526407E-4
MEAN_MOTION_DOT = .16E-6
MEAN_MOTION_DDOT = 0

