COSMOS 1743             
1 16719U 86034A   25303.74170934  .00035510  00000+0  64848-3 0  9999
2 16719  82.5381 209.1435 0009057  56.0867 304.1243 15.49194709160070
SL-14 R/B               
1 16792U 86046B   25303.67069304  .00000725  00000+0  81128-4 0  9994
2 16792  82.4844 202.9811 0021855 300.0752  59.8297 14.85420186107106
SL-14 R/B               
1 16882U 86055B   25303.86529075  .00000893  00000+0  10046-3 0  9997
2 16882  82.5200 248.6541 0020213  45.1719 338.5388 14.85457691100097
AJISAI (EGS)            
1 16908U 86061A   25303.96002882 -.00000077  00000+0  14460-3 0  9995
2 16908  50.0063 132.2627 0011138 317.8207 204.0245 12.44514108451844
COSMOS 1812             
1 17295U 87003A   25303.54486792  .00072990  00000+0  67617-3 0  9996
2 17295  82.4913 338.4661 0003354 179.7505 180.3758 15.67229722123879
SL-14 R/B               
1 17567U 87024B   25303.75127656  .00000791  00000+0  87663-4 0  9999
2 17567  82.5304 214.8289 0017709 336.0021  24.0368 14.85958455 68835
COSMOS 1833             
1 17589U 87027A   25303.74752171 -.00000307  00000+0 -13855-3 0  9997
2 17589  70.9165 239.1505 0020538  32.8536 327.3857 14.13025518991958
SL-16 R/B               
1 17590U 87027B   25303.67481076 -.00000035  00000+0  64862-5 0  9997
2 17590  71.0024 190.4621 0006799 304.9587  55.0898 14.17142045996961
SL-14 R/B               
1 17912U 87038B   25303.74683149  .00000869  00000+0  98463-4 0  9997
2 17912  82.5023  59.1842 0018176 231.4326 128.5263 14.85193020 59942
COSMOS 1844             
1 17973U 87041A   25303.42512439  .00000297  00000+0  17921-3 0  9990
2 17973  70.8975 308.9301 0032475 221.1152 138.7522 14.14508317985165
SL-14 R/B               
1 18153U 87055B   25303.47684926  .00000787  00000+0  88131-4 0  9998
2 18153  82.4962 111.7604 0022221  84.5225 275.8525 14.85450408 50600
COSMOS 1867             
1 18187U 87060A   25303.35789455  .00000016  00000+0  43526-4 0  9995
2 18187  65.0104 311.6892 0013772 266.8256  93.1253 14.31475100  1288
